NORAD_CAT_ID,OBJECT_NAME,OBJECT_TYPE,EPOCH,MEAN_MOTION,ECCENTRICITY,INCLINATION,RA_OF_ASC_NODE,ARG_OF_PERICENTER,MEAN_ANOMALY,BSTAR,MEAN_MOTION_DOT,MEAN_MOTION_DDOT,TLE_LINE0,TLE_LINE1,TLE_LINE2,SEMIMAJOR_AXIS,PERIOD,APOGEE,PERIGEE,DECAYED
52474.0,STARLINK-3855,PAYLOAD,2023-07-16 02:10:44,15.08847208,0.000101,53.2168,72.8523,97.1869,262.9238,0.00019825,2.869e-05,0.0,0 STARLINK-3855,1 52474U 22049Z   23197.09079500  .00002869  00000-0  19825-3 0  9994,2 52474  53.2168  72.8523 0001010  97.1869 262.9238 15.08847208 66476,6917.858,95.437,540.422,539.025,0.0
52474.0,STARLINK-3855,PAYLOAD,2023-07-16 18:04:36,15.08834931,9.66e-05,53.2164,69.8795,99.2903,260.8198,-6.3489e-05,-1.298e-05,0.0,0 STARLINK-3855,1 52474U 22049Z   23197.75320007 -.00001298  00000-0 -63489-4 0  9991,2 52474  53.2164  69.8795 0000966  99.2903 260.8198 15.08834931 66572,6917.896,95.438,540.429,539.093,0.0
52474.0,STARLINK-3855,PAYLOAD,2023-07-17 17:55:23,15.08846468,9.2e-05,53.2165,65.419,99.6324,260.4772,0.00026908,3.998e-05,0.0,0 STARLINK-3855,1 52474U 22049Z   23198.74679894  .00003998  00000-0  26908-3 0  9993,2 52474  53.2165  65.4190 0000920  99.6324 260.4772 15.08846468 66724,6917.861,95.437,540.362,539.089,0.0
52474.0,STARLINK-3855,PAYLOAD,2023-07-18 09:49:14,15.08844673,0.0001017,53.2175,62.4424,128.1831,231.9253,0.00021553,3.144e-05,0.0,0 STARLINK-3855,1 52474U 22049Z   23199.40919862  .00003144  00000-0  21553-3 0  9993,2 52474  53.2175  62.4424 0001017 128.1831 231.9253 15.08844673 66825,6917.866,95.437,540.435,539.028,0.0
52474.0,STARLINK-3855,PAYLOAD,2023-07-19 00:07:43,15.08841978,9.11e-05,53.216,59.7684,102.7173,257.3921,0.00016932,2.408e-05,0.0,0 STARLINK-3855,1 52474U 22049Z   23200.00536195  .00002408  00000-0  16932-3 0  9993,2 52474  53.2160  59.7684 0000911 102.7173 257.3921 15.08841978 66914,6917.874,95.437,540.37,539.109,0.0
52474.0,STARLINK-3855,PAYLOAD,2023-07-19 16:01:34,15.08836817,0.0001047,53.2156,56.7932,108.3841,251.7265,9.06e-05,1.154e-05,0.0,0 STARLINK-3855,1 52474U 22049Z   23200.66776574  .00001154  00000-0  90600-4 0  9994,2 52474  53.2156  56.7932 0001047 108.3841 251.7265 15.08836817 67014,6917.89,95.438,540.479,539.031,0.0
52474.0,STARLINK-3855,PAYLOAD,2023-07-20 23:49:17,15.08846918,9.88e-05,53.2162,50.8453,111.1925,248.9173,0.00025636,3.795e-05,0.0,0 STARLINK-3855,1 52474U 22049Z   23201.99256453  .00003795  00000-0  25636-3 0  9999,2 52474  53.2162  50.8453 0000988 111.1925 248.9173 15.08846918 67213,6917.859,95.437,540.408,539.041,0.0
52474.0,STARLINK-3855,PAYLOAD,2023-07-21 15:43:09,15.08841233,9.59e-05,53.2165,47.8724,104.4369,255.6729,0.00023594,3.469e-05,0.0,0 STARLINK-3855,1 52474U 22049Z   23202.65496668  .00003469  00000-0  23594-3 0  9996,2 52474  53.2165  47.8724 0000959 104.4369 255.6729 15.08841233 67316,6917.877,95.437,540.405,539.078,0.0
52474.0,STARLINK-3855,PAYLOAD,2023-07-24 00:57:02,15.08836791,0.0001005,53.2194,37.1629,137.6537,222.4533,-3.3134e-05,-8.15e-06,0.0,0 STARLINK-3855,1 52474U 22049Z   23205.03960867 -.00000815  00000-0 -33134-4 0  9994,2 52474  53.2194  37.1629 0001005 137.6537 222.4533 15.08836791 67512,6917.89,95.438,540.45,539.06,0.0
52474.0,STARLINK-3855,PAYLOAD,2023-07-25 00:47:48,15.08853403,9.2e-05,53.2175,32.7073,100.1795,259.9301,0.00021088,3.071e-05,0.0,0 STARLINK-3855,1 52474U 22049Z   23206.03319890  .00003071  00000-0  21088-3 0  9998,2 52474  53.2175  32.7073 0000920 100.1795 259.9301 15.08853403 67664,6917.839,95.437,540.341,539.068,0.0
52474.0,STARLINK-3855,PAYLOAD,2023-07-26 11:46:18,15.08842254,9.78e-05,53.2172,26.1658,84.4356,275.6747,0.00013726,1.898e-05,0.0,0 STARLINK-3855,1 52474U 22049Z   23207.49049060  .00001898  00000-0  13726-3 0  9993,2 52474  53.2172  26.1658 0000978  84.4356 275.6747 15.08842254 67882,6917.873,95.437,540.415,539.062,0.0
52474.0,STARLINK-3855,PAYLOAD,2023-07-26 14:57:04,15.08849517,0.0001025,53.2171,25.5718,85.1564,274.9545,0.0001167,1.57e-05,0.0,0 STARLINK-3855,1 52474U 22049Z   23207.62296722  .00001570  00000-0  11670-3 0  9990,2 52474  53.2171  25.5718 0001025  85.1564 274.9545 15.08849517 68062,6917.851,95.437,540.425,539.007,0.0
52474.0,STARLINK-3855,PAYLOAD,2023-07-27 11:37:05,15.08842185,0.00017,53.2178,21.7063,85.5145,274.6041,0.00021833,3.189e-05,0.0,0 STARLINK-3855,1 52474U 22049Z   23208.48409279  .00003189  00000-0  21833-3 0  9998,2 52474  53.2178  21.7063 0001700  85.5145 274.6041 15.08842185 68038,6917.874,95.437,540.915,538.563,0.0
52474.0,STARLINK-3855,PAYLOAD,2023-07-27 14:47:51,15.0883636,0.0001222,53.2167,21.1071,120.6905,239.4207,-3.6552e-05,-8.69e-06,0.0,0 STARLINK-3855,1 52474U 22049Z   23208.61657180 -.00000869  00000-0 -36552-4 0  9998,2 52474  53.2167  21.1071 0001222 120.6905 239.4207 15.08836360 68214,6917.892,95.438,540.602,538.911,0.0
52474.0,STARLINK-3855,PAYLOAD,2023-07-28 13:03:15,15.08839922,9.86e-05,53.2169,16.9484,89.8504,270.2601,5.7211e-05,6.23e-06,0.0,0 STARLINK-3855,1 52474U 22049Z   23209.54393413  .00000623  00000-0  57211-4 0  9998,2 52474  53.2169  16.9484 0000986  89.8504 270.2601 15.08839922 68198,6917.881,95.438,540.428,539.064,0.0
52474.0,STARLINK-3855,PAYLOAD,2023-07-28 17:49:25,15.08843466,0.0001152,53.2166,16.0559,102.8064,257.3057,0.00011811,1.593e-05,0.0,0 STARLINK-3855,1 52474U 22049Z   23209.74265249  .00001593  00000-0  11811-3 0  9997,2 52474  53.2166  16.0559 0001152 102.8064 257.3057 15.08843466 68382,6917.87,95.437,540.532,538.938,0.0
52474.0,STARLINK-3855,PAYLOAD,2023-07-28 21:00:10,15.08858485,0.0001221,53.2165,15.461,105.9856,254.1271,-0.00025097,-4.282e-05,0.0,0 STARLINK-3855,1 52474U 22049Z   23209.87512305 -.00004282  00000-0 -25097-3 0  9990,2 52474  53.2165  15.4610 0001221 105.9856 254.1271 15.08858485 68405,6917.824,95.436,540.534,538.844,0.0
52474.0,STARLINK-3855,PAYLOAD,2023-07-29 16:04:49,15.08842084,0.000106,53.2167,11.8923,98.5921,261.5191,0.0002259,3.309e-05,0.0,0 STARLINK-3855,1 52474U 22049Z   23210.67001382  .00003309  00000-0  22590-3 0  9990,2 52474  53.2167  11.8923 0001060  98.5921 261.5191 15.08842084 68529,6917.874,95.437,540.472,539.006,0.0
52474.0,STARLINK-3855,PAYLOAD,2023-07-30 09:34:03,15.08836433,0.0001106,53.2166,8.6207,109.4914,250.6197,9.2814e-06,-1.4e-06,0.0,0 STARLINK-3855,1 52474U 22049Z   23211.39865564 -.00000140  00000-0  92814-5 0  9999,2 52474  53.2166   8.6207 0001106 109.4914 250.6197 15.08836433 68630,6917.891,95.438,540.521,538.991,0.0
52474.0,STARLINK-3855,PAYLOAD,2023-07-30 17:30:59,15.08845532,8.65e-05,53.2175,7.1357,94.2944,265.8147,0.00014243,1.98e-05,0.0,0 STARLINK-3855,1 52474U 22049Z   23211.72985206  .00001980  00000-0  14243-3 0  9992,2 52474  53.2175   7.1357 0000865  94.2944 265.8147 15.08845532 68683,6917.863,95.437,540.327,539.13,0.0
52474.0,STARLINK-3855,PAYLOAD,2023-07-31 17:21:46,15.08839383,0.0001123,53.2184,2.6782,79.7807,280.3311,-5.5237e-06,-3.76e-06,0.0,0 STARLINK-3855,1 52474U 22049Z   23212.72345528 -.00000376  00000-0 -55237-5 0  9990,2 52474  53.2184   2.6782 0001123  79.7807 280.3311 15.08839383 68838,6917.882,95.438,540.524,538.97,0.0
52474.0,STARLINK-3855,PAYLOAD,2023-08-01 18:47:56,15.088421,9.83e-05,53.2178,357.9206,96.6974,263.413,0.00018341,2.633e-05,0.0,0 STARLINK-3855,1 52474U 22049Z   23213.78329668  .00002633  00000-0  18341-3 0  9993,2 52474  53.2178 357.9206 0000983  96.6974 263.4130 15.08842100 68993,6917.874,95.437,540.419,539.059,0.0
52474.0,STARLINK-3855,PAYLOAD,2023-08-03 08:57:12,15.08845471,0.0001032,53.2177,350.7791,90.8936,269.2175,8.9668e-05,1.14e-05,0.0,0 STARLINK-3855,1 52474U 22049Z   23215.37305574  .00001140  00000-0  89668-4 0  9993,2 52474  53.2177 350.7791 0001032  90.8936 269.2175 15.08845471 69237,6917.864,95.437,540.443,539.015,0.0
52474.0,STARLINK-3855,PAYLOAD,2023-08-04 15:09:31,15.08842045,0.0001046,53.2175,345.1304,76.0871,284.0238,-8.9781e-06,-4.31e-06,0.0,0 STARLINK-3855,1 52474U 22049Z   23216.63161876 -.00000431  00000-0 -89781-5 0  9999,2 52474  53.2175 345.1304 0001046  76.0871 284.0238 15.08842045 69422,6917.874,95.437,540.463,539.016,0.0
52474.0,STARLINK-3855,PAYLOAD,2023-08-05 15:00:18,15.08862013,0.0001279,53.2171,340.6718,58.1544,301.9572,0.00055208,8.515e-05,0.0,0 STARLINK-3855,1 52474U 22049Z   23217.62521206  .00008515  00000-0  55208-3 0  9990,2 52474  53.2171 340.6718 0001279  58.1544 301.9572 15.08862013 69576,6917.813,95.436,540.563,538.793,0.0
52474.0,STARLINK-3855,PAYLOAD,2023-08-06 08:29:33,15.08834931,0.0001168,53.2164,337.4024,78.8757,281.2367,5.5941e-09,-2.88e-06,0.0,0 STARLINK-3855,1 52474U 22049Z   23218.35386318 -.00000288  00000-0  55941-8 0  9993,2 52474  53.2164 337.4024 0001168  78.8757 281.2367 15.08834931 69686,6917.896,95.438,540.569,538.953,0.0
52474.0,STARLINK-3855,PAYLOAD,2023-08-07 00:23:25,15.0882731,9.5e-05,53.217,334.4268,92.255,267.8551,4.633e-05,4.49e-06,0.0,0 STARLINK-3855,1 52474U 22049Z   23219.01626920  .00000449  00000-0  46330-4 0  9999,2 52474  53.2170 334.4268 0000950  92.2550 267.8551 15.08827310 69788,6917.919,95.438,540.441,539.127,0.0
52474.0,STARLINK-3855,PAYLOAD,2023-08-07 08:20:21,15.08837916,9.38e-05,53.218,332.9378,85.2265,274.8834,0.00043117,6.581e-05,0.0,0 STARLINK-3855,1 52474U 22049Z   23219.34746785  .00006581  00000-0  43117-3 0  9999,2 52474  53.2180 332.9378 0000938  85.2265 274.8834 15.08837916 69836,6917.887,95.438,540.401,539.103,0.0
52474.0,STARLINK-3855,PAYLOAD,2023-08-07 14:41:53,15.08852423,9.22e-05,53.2172,331.7499,92.0437,268.0661,0.00092418,0.00014456,0.0,0 STARLINK-3855,1 52474U 22049Z   23219.61242593  .00014456  00000-0  92418-3 0  9995,2 52474  53.2172 331.7499 0000922  92.0437 268.0661 15.08852423 69875,6917.842,95.437,540.345,539.07,0.0
52474.0,STARLINK-3855,PAYLOAD,2023-08-08 00:14:12,15.08848615,0.0001083,53.2177,329.964,91.8288,268.2829,0.00020185,2.927e-05,0.0,0 STARLINK-3855,1 52474U 22049Z   23220.00986491  .00002927  00000-0  20185-3 0  9994,2 52474  53.2177 329.9640 0001083  91.8288 268.2829 15.08848615 69930,6917.854,95.437,540.468,538.97,0.0
